[{"OBJECT_NAME":"HXMT (HUIYAN)","OBJECT_ID":"2017-034A","EPOCH":"2026-03-27T05:15:54.553824","MEAN_MOTION":15.17680824,"ECCENTRICITY":0.00320854,"INCLINATION":43.0142,"RA_OF_ASC_NODE":279.1991,"ARG_OF_PERICENTER":343.039,"MEAN_ANOMALY":16.9384,"EPHEMERIS_TYPE":0,"CLASSIFICATION_TYPE":"U","NORAD_CAT_ID":42758,"ELEMENT_SET_NO":999,"REV_AT_EPOCH":48520,"BSTAR":0.00025551782,"MEAN_MOTION_DOT":5.07e-5,"MEAN_MOTION_DDOT":0},{"OBJECT_NAME":"SAOCOM 1A","OBJECT_ID":"2018-076A","EPOCH":"2026-03-27T07:31:05.492928","MEAN_MOTION":14.82156769,"ECCENTRICITY":0.00014913,"INCLINATION":97.8908,"RA_OF_ASC_NODE":274.2368,"ARG_OF_PERICENTER":84.911,"MEAN_ANOMALY":275.2273,"EPHEMERIS_TYPE":0,"CLASSIFICATION_TYPE":"U","NORAD_CAT_ID":43641,"ELEMENT_SET_NO":999,"REV_AT_EPOCH":40397,"BSTAR":-2.3608134e-5,"MEAN_MOTION_DOT":-2.4e-6,"MEAN_MOTION_DDOT":0},{"OBJECT_NAME":"H-2A R/B","OBJECT_ID":"2018-084L","EPOCH":"2026-03-27T04:36:11.048256","MEAN_MOTION":15.42073321,"ECCENTRICITY":0.00239204,"INCLINATION":98.8713,"RA_OF_ASC_NODE":307.3285,"ARG_OF_PERICENTER":324.4256,"MEAN_ANOMALY":35.5391,"EPHEMERIS_TYPE":0,"CLASSIFICATION_TYPE":"U","NORAD_CAT_ID":43682,"ELEMENT_SET_NO":999,"REV_AT_EPOCH":40847,"BSTAR":0.00044705984,"MEAN_MOTION_DOT":0.0001921,"MEAN_MOTION_DDOT":0},{"OBJECT_NAME":"SAOCOM 1B","OBJECT_ID":"2020-059A","EPOCH":"2026-03-27T06:38:51.173952","MEAN_MOTION":14.82154431,"ECCENTRICITY":0.00015191,"INCLINATION":97.8908,"RA_OF_ASC_NODE":273.2989,"ARG_OF_PERICENTER":89.0618,"MEAN_ANOMALY":271.0769,"EPHEMERIS_TYPE":0,"CLASSIFICATION_TYPE":"U","NORAD_CAT_ID":46265,"ELEMENT_SET_NO":999,"REV_AT_EPOCH":30135,"BSTAR":8.3110454e-5,"MEAN_MOTION_DOT":6.09e-6,"MEAN_MOTION_DDOT":0},{"OBJECT_NAME":"CSS (TIANHE)","OBJECT_ID":"2021-035A","EPOCH":"2026-03-27T05:51:34.788096","MEAN_MOTION":15.61545149,"ECCENTRICITY":0.0004214,"INCLINATION":41.4668,"RA_OF_ASC_NODE":101.276,"ARG_OF_PERICENTER":35.2291,"MEAN_ANOMALY":324.8826,"EPHEMERIS_TYPE":0,"CLASSIFICATION_TYPE":"U","NORAD_CAT_ID":48274,"ELEMENT_SET_NO":999,"REV_AT_EPOCH":28035,"BSTAR":0.00022856871,"MEAN_MOTION_DOT":0.0001989,"MEAN_MOTION_DDOT":0},{"OBJECT_NAME":"COSMOS 2550","OBJECT_ID":"2021-056A","EPOCH":"2026-03-27T07:39:21.102336","MEAN_MOTION":15.33838445,"ECCENTRICITY":0.0008327,"INCLINATION":67.1426,"RA_OF_ASC_NODE":347.5557,"ARG_OF_PERICENTER":269.4934,"MEAN_ANOMALY":90.5266,"EPHEMERIS_TYPE":0,"CLASSIFICATION_TYPE":"U","NORAD_CAT_ID":48865,"ELEMENT_SET_NO":999,"REV_AT_EPOCH":26616,"BSTAR":8.8751e-8,"MEAN_MOTION_DOT":-1.89e-6,"MEAN_MOTION_DDOT":0},{"OBJECT_NAME":"CZ-2C R/B","OBJECT_ID":"2022-058K","EPOCH":"2026-03-26T19:12:08.864640","MEAN_MOTION":15.55455273,"ECCENTRICITY":0.0041479,"INCLINATION":50.1867,"RA_OF_ASC_NODE":230.1901,"ARG_OF_PERICENTER":274.0304,"MEAN_ANOMALY":85.5926,"EPHEMERIS_TYPE":0,"CLASSIFICATION_TYPE":"U","NORAD_CAT_ID":52794,"ELEMENT_SET_NO":999,"REV_AT_EPOCH":21279,"BSTAR":0.00050425415,"MEAN_MOTION_DOT":0.0003612,"MEAN_MOTION_DDOT":0},{"OBJECT_NAME":"CZ-2C R/B","OBJECT_ID":"2022-132E","EPOCH":"2026-03-26T23:33:49.732704","MEAN_MOTION":15.6346321,"ECCENTRICITY":0.0018126,"INCLINATION":97.2959,"RA_OF_ASC_NODE":89.8447,"ARG_OF_PERICENTER":35.157,"MEAN_ANOMALY":325.0881,"EPHEMERIS_TYPE":0,"CLASSIFICATION_TYPE":"U","NORAD_CAT_ID":54039,"ELEMENT_SET_NO":999,"REV_AT_EPOCH":19307,"BSTAR":0.00056005,"MEAN_MOTION_DOT":0.00052241,"MEAN_MOTION_DDOT":0},{"OBJECT_NAME":"GSLV R/B","OBJECT_ID":"2022-138AN","EPOCH":"2026-03-27T05:40:15.810240","MEAN_MOTION":14.96884924,"ECCENTRICITY":0.00240904,"INCLINATION":87.3862,"RA_OF_ASC_NODE":160.4887,"ARG_OF_PERICENTER":88.9065,"MEAN_ANOMALY":271.4926,"EPHEMERIS_TYPE":0,"CLASSIFICATION_TYPE":"U","NORAD_CAT_ID":54149,"ELEMENT_SET_NO":999,"REV_AT_EPOCH":18655,"BSTAR":0.00018933236,"MEAN_MOTION_DOT":2.213e-5,"MEAN_MOTION_DDOT":0},{"OBJECT_NAME":"XRISM","OBJECT_ID":"2023-137A","EPOCH":"2026-03-26T14:39:56.372832","MEAN_MOTION":15.11688606,"ECCENTRICITY":0.00079383,"INCLINATION":31.0013,"RA_OF_ASC_NODE":174.1979,"ARG_OF_PERICENTER":209.6422,"MEAN_ANOMALY":150.3768,"EPHEMERIS_TYPE":0,"CLASSIFICATION_TYPE":"U","NORAD_CAT_ID":57800,"ELEMENT_SET_NO":999,"REV_AT_EPOCH":14035,"BSTAR":0.0003234108,"MEAN_MOTION_DOT":5.744e-5,"MEAN_MOTION_DDOT":0},{"OBJECT_NAME":"ACS3","OBJECT_ID":"2024-077B","EPOCH":"2026-03-27T06:40:05.155680","MEAN_MOTION":13.90414475,"ECCENTRICITY":0.00719456,"INCLINATION":97.1972,"RA_OF_ASC_NODE":23.4361,"ARG_OF_PERICENTER":36.1211,"MEAN_ANOMALY":324.4783,"EPHEMERIS_TYPE":0,"CLASSIFICATION_TYPE":"U","NORAD_CAT_ID":59588,"ELEMENT_SET_NO":999,"REV_AT_EPOCH":9664,"BSTAR":0.022178553,"MEAN_MOTION_DOT":0.0002819,"MEAN_MOTION_DDOT":0},{"OBJECT_NAME":"SZ-21 MODULE","OBJECT_ID":"2025-246C","EPOCH":"2026-03-27T07:41:12.122880","MEAN_MOTION":15.69886344,"ECCENTRICITY":0.00013734,"INCLINATION":41.4743,"RA_OF_ASC_NODE":94.7188,"ARG_OF_PERICENTER":209.1832,"MEAN_ANOMALY":150.8934,"EPHEMERIS_TYPE":0,"CLASSIFICATION_TYPE":"U","NORAD_CAT_ID":66515,"ELEMENT_SET_NO":999,"REV_AT_EPOCH":2084,"BSTAR":0.00030508676,"MEAN_MOTION_DOT":0.00037451,"MEAN_MOTION_DDOT":0}]
